[{"OBJECT_NAME":"HAWK-11C","OBJECT_ID":"2024-247E","EPOCH":"2026-03-09T12:17:35.407968","MEAN_MOTION":15.2884802,"ECCENTRICITY":0.00059001,"INCLINATION":45.0045,"RA_OF_ASC_NODE":114.8762,"ARG_OF_PERICENTER":329.704,"MEAN_ANOMALY":30.3502,"EPHEMERIS_TYPE":0,"CLASSIFICATION_TYPE":"U","NORAD_CAT_ID":62381,"ELEMENT_SET_NO":999,"REV_AT_EPOCH":6774,"BSTAR":0.00033290115,"MEAN_MOTION_DOT":9.223e-5,"MEAN_MOTION_DDOT":0},{"OBJECT_NAME":"STARLINK-34887","OBJECT_ID":"2025-167AB","EPOCH":"2026-03-09T02:42:23.315904","MEAN_MOTION":15.30191671,"ECCENTRICITY":0.00011635,"INCLINATION":53.1605,"RA_OF_ASC_NODE":29.1839,"ARG_OF_PERICENTER":74.353,"MEAN_ANOMALY":285.7599,"EPHEMERIS_TYPE":0,"CLASSIFICATION_TYPE":"U","NORAD_CAT_ID":65103,"ELEMENT_SET_NO":999,"REV_AT_EPOCH":3339,"BSTAR":0.0016470706,"MEAN_MOTION_DOT":0.0004873,"MEAN_MOTION_DDOT":0}]
