HAWK-11C                
1 62381U 24247E   26068.51221537  .00009223  00000+0  33290-3 0  9992
2 62381  45.0045 114.8762 0005900 329.7040  30.3502 15.28848020 67743
STARLINK-34887          
1 65103U 25167AB  26068.11276986  .00048730  00000+0  16471-2 0  9990
2 65103  53.1605  29.1839 0001163  74.3530 285.7599 15.30191671 33399
